start=new Date('2021-09-10T00:00:00.000Z').valueOf();
sats=[{"TLE_LINE2":"2 48694  53.0448 259.0292 0001337  69.7362 191.1924 15.40069123  3701","SEMIMAJOR_AXIS":"6824.042","PERIOD":"93.502","PERIAPSIS":"444.995","ELEMENT_SET_NO":"999","ARG_OF_PERICENTER":"69.7362","OBJECT_TYPE":"PAYLOAD","MEAN_MOTION_DOT":"-0.00940358","MEAN_ELEMENT_THEORY":"SGP4","TLE_LINE1":"1 48694U 21044BJ  21252.91667824 -.00940358  00000-0 -25285-1 0  9991","OBJECT_NAME":"STARLINK-2748","CENTER_NAME":"EARTH","BSTAR":"-0.02528500000000","REF_FRAME":"TEME","LAUNCH_DATE":"2021-05-26","MEAN_MOTION_DDOT":"0.0000000000000","INCLINATION":"53.0448","COUNTRY_CODE":"US","EPOCH":"2021-09-09T22:00:00.999936","RCS_SIZE":"LARGE","REV_AT_EPOCH":"370","CLASSIFICATION_TYPE":"U","DECAY_DATE":null,"EPHEMERIS_TYPE":"0","SITE":"AFETR","NORAD_CAT_ID":"48694","ECCENTRICITY":"0.00013370","MEAN_ANOMALY":"191.1924","APOAPSIS":"446.819","GP_ID":"184409853","FILE":"3111873","OBJECT_ID":"2021-044BJ","TIME_SYSTEM":"UTC","MEAN_MOTION":"15.40069123","RA_OF_ASC_NODE":"259.0292"},{"EPOCH":"2021-09-09T22:00:00.999936","COUNTRY_CODE":"US","RCS_SIZE":"LARGE","INCLINATION":"53.0455","SITE":"AFETR","NORAD_CAT_ID":"48695","REV_AT_EPOCH":"370","CLASSIFICATION_TYPE":"U","EPHEMERIS_TYPE":"0","DECAY_DATE":null,"GP_ID":"184410040","FILE":"3111873","ECCENTRICITY":"0.00011900","MEAN_ANOMALY":"329.4705","APOAPSIS":"440.157","MEAN_MOTION":"15.42293093","RA_OF_ASC_NODE":"259.0477","TIME_SYSTEM":"UTC","OBJECT_ID":"2021-044BK","PERIAPSIS":"438.534","TLE_LINE2":"2 48695  53.0455 259.0477 0001190  58.8945 329.4705 15.42293093  3708","SEMIMAJOR_AXIS":"6817.480","PERIOD":"93.367","ARG_OF_PERICENTER":"58.8945","MEAN_MOTION_DOT":"-0.00942206","MEAN_ELEMENT_THEORY":"SGP4","OBJECT_TYPE":"PAYLOAD","ELEMENT_SET_NO":"999","BSTAR":"-0.02352200000000","REF_FRAME":"TEME","TLE_LINE1":"1 48695U 21044BK  21252.91667824 -.00942206  00000-0 -23522-1 0  9998","OBJECT_NAME":"STARLINK-2616","CENTER_NAME":"EARTH","MEAN_MOTION_DDOT":"0.0000000000000","LAUNCH_DATE":"2021-05-26"},{"EPOCH":"2021-09-09T22:00:00.999936","COUNTRY_CODE":"US","RCS_SIZE":"LARGE","INCLINATION":"53.0475","SITE":"AFETR","NORAD_CAT_ID":"48696","REV_AT_EPOCH":"367","CLASSIFICATION_TYPE":"U","EPHEMERIS_TYPE":"0","DECAY_DATE":null,"GP_ID":"184409947","FILE":"3111873","ECCENTRICITY":"0.00013160","MEAN_ANOMALY":"225.0251","APOAPSIS":"500.381","RA_OF_ASC_NODE":"262.0874","MEAN_MOTION":"15.22111219","OBJECT_ID":"2021-044BL","TIME_SYSTEM":"UTC","PERIAPSIS":"498.571","TLE_LINE2":"2 48696  53.0475 262.0874 0001316  72.4620 225.0251 15.22111219  3678","PERIOD":"94.605","SEMIMAJOR_AXIS":"6877.611","ARG_OF_PERICENTER":"72.4620","MEAN_MOTION_DOT":"-0.00928545","MEAN_ELEMENT_THEORY":"SGP4","OBJECT_TYPE":"PAYLOAD","ELEMENT_SET_NO":"999","BSTAR":"-0.04320900000000","REF_FRAME":"TEME","TLE_LINE1":"1 48696U 21044BL  21252.91667824 -.00928545  00000-0 -43209-1 0  9993","OBJECT_NAME":"STARLINK-2753","CENTER_NAME":"EARTH","MEAN_MOTION_DDOT":"0.0000000000000","LAUNCH_DATE":"2021-05-26"},{"OBJECT_NAME":"STARLINK-2715","CENTER_NAME":"EARTH","TLE_LINE1":"1 48697U 21044BM  21252.91667824 -.00930752  00000-0 -45688-1 0  9990","REF_FRAME":"TEME","BSTAR":"-0.04568800000000","LAUNCH_DATE":"2021-05-26","MEAN_MOTION_DDOT":"0.0000000000000","SEMIMAJOR_AXIS":"6883.057","PERIOD":"94.718","TLE_LINE2":"2 48697  53.0467 262.1531 0001607  54.7641 111.3511 15.20304950  3669","PERIAPSIS":"503.816","ELEMENT_SET_NO":"999","OBJECT_TYPE":"PAYLOAD","MEAN_MOTION_DOT":"-0.00930752","MEAN_ELEMENT_THEORY":"SGP4","ARG_OF_PERICENTER":"54.7641","MEAN_ANOMALY":"111.3511","APOAPSIS":"506.028","ECCENTRICITY":"0.00016070","FILE":"3111873","GP_ID":"184410447","OBJECT_ID":"2021-044BM","TIME_SYSTEM":"UTC","RA_OF_ASC_NODE":"262.1531","MEAN_MOTION":"15.20304950","INCLINATION":"53.0467","RCS_SIZE":"LARGE","COUNTRY_CODE":"US","EPOCH":"2021-09-09T22:00:00.999936","DECAY_DATE":null,"EPHEMERIS_TYPE":"0","CLASSIFICATION_TYPE":"U","REV_AT_EPOCH":"366","NORAD_CAT_ID":"48697","SITE":"AFETR"},{"ARG_OF_PERICENTER":"46.9619","OBJECT_TYPE":"PAYLOAD","MEAN_ELEMENT_THEORY":"SGP4","MEAN_MOTION_DOT":"-0.00032859","ELEMENT_SET_NO":"999","PERIAPSIS":"510.539","TLE_LINE2":"2 48879  97.5199  20.9777 0010819  46.9619 154.3004 15.15982363  3614","SEMIMAJOR_AXIS":"6896.135","PERIOD":"94.988","MEAN_MOTION_DDOT":"0.0000000000000","LAUNCH_DATE":"2021-06-30","BSTAR":"-0.00171470000000","REF_FRAME":"TEME","TLE_LINE1":"1 48879U 21059A   21252.91667824 -.00032859  00000-0 -17147-2 0  9999","OBJECT_NAME":"STARLINK-3003","CENTER_NAME":"EARTH","SITE":"AFETR","NORAD_CAT_ID":"48879","REV_AT_EPOCH":"361","CLASSIFICATION_TYPE":"U","DECAY_DATE":null,"EPHEMERIS_TYPE":"0","COUNTRY_CODE":"US","EPOCH":"2021-09-09T22:00:00.999936","RCS_SIZE":"LARGE","INCLINATION":"97.5199","RA_OF_ASC_NODE":"20.9777","MEAN_MOTION":"15.15982363","OBJECT_ID":"2021-059A","TIME_SYSTEM":"UTC","GP_ID":"184410469","FILE":"3111873","ECCENTRICITY":"0.00108190","MEAN_ANOMALY":"154.3004","APOAPSIS":"525.461"},{"ARG_OF_PERICENTER":"48.3680","OBJECT_TYPE":"PAYLOAD","MEAN_MOTION_DOT":"-0.00079031","MEAN_ELEMENT_THEORY":"SGP4","ELEMENT_SET_NO":"999","PERIAPSIS":"510.377","TLE_LINE2":"2 48880  97.5200  20.9760 0010936  48.3680 148.7305 15.16009100  3616","SEMIMAJOR_AXIS":"6896.054","PERIOD":"94.986","MEAN_MOTION_DDOT":"0.0000000000000","LAUNCH_DATE":"2021-06-30","BSTAR":"-0.00415150000000","REF_FRAME":"TEME","TLE_LINE1":"1 48880U 21059B   21252.91667824 -.00079031  00000-0 -41515-2 0  9990","OBJECT_NAME":"STARLINK-3004","CENTER_NAME":"EARTH","SITE":"AFETR","NORAD_CAT_ID":"48880","REV_AT_EPOCH":"361","CLASSIFICATION_TYPE":"U","DECAY_DATE":null,"EPHEMERIS_TYPE":"0","COUNTRY_CODE":"US","EPOCH":"2021-09-09T22:00:00.999936","RCS_SIZE":"LARGE","INCLINATION":"97.5200","RA_OF_ASC_NODE":"20.9760","MEAN_MOTION":"15.16009100","OBJECT_ID":"2021-059B","TIME_SYSTEM":"UTC","GP_ID":"184409874","FILE":"3111873","ECCENTRICITY":"0.00109360","APOAPSIS":"525.460","MEAN_ANOMALY":"148.7305"},{"LAUNCH_DATE":"2021-06-30","MEAN_MOTION_DDOT":"0.0000000000000","CENTER_NAME":"EARTH","OBJECT_NAME":"STARLINK-3005","TLE_LINE1":"1 48881U 21059C   21252.91667824 -.00067267  00000-0 -35320-2 0  9996","REF_FRAME":"TEME","BSTAR":"-0.00353200000000","ELEMENT_SET_NO":"999","MEAN_ELEMENT_THEORY":"SGP4","MEAN_MOTION_DOT":"-0.00067267","OBJECT_TYPE":"PAYLOAD","ARG_OF_PERICENTER":"106.8851","SEMIMAJOR_AXIS":"6896.048","PERIOD":"94.986","TLE_LINE2":"2 48881  97.5206  20.9878 0004742 106.8851 105.9911 15.16010952  3616","PERIAPSIS":"514.643","TIME_SYSTEM":"UTC","OBJECT_ID":"2021-059C","MEAN_MOTION":"15.16010952","RA_OF_ASC_NODE":"20.9878","APOAPSIS":"521.183","MEAN_ANOMALY":"105.9911","ECCENTRICITY":"0.00047420","FILE":"3111873","GP_ID":"184410061","EPHEMERIS_TYPE":"0","DECAY_DATE":null,"REV_AT_EPOCH":"361","CLASSIFICATION_TYPE":"U","NORAD_CAT_ID":"48881","SITE":"AFETR","INCLINATION":"97.5206","RCS_SIZE":"LARGE","EPOCH":"2021-09-09T22:00:00.999936","COUNTRY_CODE":"US"}];
